OBJECT_NAME,OBJECT_ID,EPOCH,MEAN_MOTION,ECCENTRICITY,INCLINATION,RA_OF_ASC_NODE,ARG_OF_PERICENTER,MEAN_ANOMALY,EPHEMERIS_TYPE,CLASSIFICATION_TYPE,NORAD_CAT_ID,ELEMENT_SET_NO,REV_AT_EPOCH,BSTAR,MEAN_MOTION_DOT,MEAN_MOTION_DDOT
EXPRESS-AMU1,2015-082A,2026-07-07T12:12:23.992128,1.00269652,.0002343,0.0239,35.9610,80.8084,27.8926,0,U,41191,999,3847,0,0,0
GAOFEN-4,2015-083A,2026-07-07T12:32:14.337888,1.00271459,.0004251,0.4067,83.8496,117.0543,18.3547,0,U,41194,999,3873,0,-.32E-5,0
BELINTERSAT-1,2016-001A,2026-07-07T12:16:53.560992,1.00271384,.000182,0.0187,91.1020,338.9211,91.1563,0,U,41238,999,3844,0,.122E-5,0
IRNSS-1E,2016-003A,2026-07-06T20:16:57.966240,1.00269537,.0019195,33.2756,59.4648,178.8904,102.4500,0,U,41241,999,3827,0,-.302E-5,0
EUTELSAT 9B,2016-005A,2026-07-07T01:48:45.258048,1.00275929,.0001155,0.0172,34.0663,76.0069,211.1687,0,U,41310,999,3831,0,.77E-6,0
SES-9,2016-013A,2026-07-07T12:33:06.755040,1.00271826,.0002281,0.0170,324.9740,138.4971,118.5962,0,U,41380,999,3764,0,-.33E-5,0
EUTELSAT 65 WEST A,2016-014A,2026-07-07T11:43:32.232000,1.00272473,.0002212,0.0737,308.5065,157.3577,290.2942,0,U,41382,999,3772,0,-.261E-5,0
IRNSS-1F,2016-015A,2026-07-06T22:30:12.291264,1.00277260,.0017394,5.3971,96.3335,183.7124,14.9319,0,U,41384,999,3786,0,.17E-5,0
BEIDOU-2 IGSO-6,2016-021A,2026-06-26T02:38:38.671584,1.00258926,.0057558,60.2385,37.9495,231.0163,137.2672,0,U,41434,999,3757,0,-.145E-5,0
IRNSS-1G,2016-027A,2026-07-06T16:01:32.475936,1.00277498,.0005822,5.2425,97.0252,7.9551,189.6780,0,U,41469,999,3737,0,-.321E-5,0
JCSAT-2B,2016-028A,2026-07-07T05:55:23.367072,1.00269967,.0000937,0.0194,35.8981,74.3616,57.8082,0,U,41471,999,3733,0,-.15E-5,0
THAICOM 8,2016-031A,2026-07-07T12:24:30.331008,1.00271289,.0003261,0.0605,38.2374,33.4643,118.4066,0,U,41552,999,3692,0,-.106E-5,0
INTELSAT 31 (IS-31),2016-035A,2026-07-06T06:29:56.251680,1.00270733,.00008295,0.0403,211.4121,55.4380,19.8435,0,U,41581,999,3687,0,-.136E-5,0
BEIDOU-2 G7,2016-037A,2026-07-07T12:33:36.707328,1.00266382,.0006451,1.7671,69.4609,6.0004,148.9001,0,U,41586,999,709,0,-.338E-5,0
ABS-2A (MONGOLSAT-1),2016-038A,2026-07-06T20:27:30.732192,1.00267067,.0001398,0.0189,29.5042,23.1261,253.8007,0,U,41588,999,3690,0,0,0
EUTELSAT 117 WEST B,2016-038B,2026-07-07T11:28:48.643392,1.00272524,.0000241,0.0031,209.3788,263.4982,227.7645,0,U,41589,999,3686,0,.4E-7,0
BRISAT,2016-039A,2026-07-07T11:58:37.780896,1.00268962,.0002008,0.0171,5.7607,103.3032,146.5565,0,U,41591,999,3681,0,0,0
ECHOSTAR 18,2016-039B,2026-07-07T04:53:59.252928,1.00268966,.0001392,0.0191,41.1936,83.8761,172.2362,0,U,41592,999,3682,0,-.267E-5,0
MUOS-5,2016-041A,2026-07-07T11:32:25.795104,1.00272111,.0199046,2.1622,302.0274,260.6122,150.7685,0,U,41622,999,3729,0,-.96E-6,0
TIANTONG-1 1,2016-048A,2026-07-07T10:48:25.644384,1.00272784,.0005191,3.8860,43.5585,54.4267,90.9398,0,U,41725,999,3647,0,-.305E-5,0
JCSAT-16,2016-050A,2026-07-07T04:08:38.650848,1.00269925,.0000983,0.0198,41.5076,73.1913,16.5553,0,U,41729,999,3627,0,-.236E-5,0
USA 270,2016-052A,2026-06-25T15:01:47.554176,0.99500516,.0000668,4.2178,77.0981,157.1810,56.2495,0,U,41744,999,2821,0,-.284E-5,0
USA 271,2016-052B,2026-06-25T18:13:09.824736,0.99833204,.0001955,4.1909,77.1447,290.7679,281.9940,0,U,41745,999,2800,0,-.236E-5,0
INTELSAT 36 (IS-36),2016-053A,2026-07-07T08:56:11.376096,1.00270143,.0002207,0.0094,10.4360,331.3169,146.1304,0,U,41747,999,3616,0,-.9E-7,0
INSAT-3DR,2016-054A,2026-07-07T12:23:15.450720,1.00272251,.0010441,0.0497,89.4997,181.2322,274.5622,0,U,41752,999,3602,0,-.62E-6,0
GSAT-18,2016-060A,2026-07-07T12:23:15.450720,1.00271376,.0005543,0.0143,85.9567,350.7666,108.5441,0,U,41793,999,3573,0,-.61E-6,0
SKY MUSTER 2 (NBN1B),2016-060B,2026-07-06T21:19:29.004096,1.00272385,.0001569,0.0159,330.2222,133.4558,285.8521,0,U,41794,999,3571,0,-.229E-5,0
HIMAWARI-9,2016-064A,2026-07-06T23:01:03.044928,1.00271383,.0002207,0.0138,10.3948,162.3808,238.1863,0,U,41836,999,3540,0,0,0
SHIJIAN-17 (SJ-17),2016-065A,2026-07-07T11:14:52.183392,0.99862586,.0001977,5.8010,72.3598,42.9539,184.4661,0,U,41838,999,3540,0,.125E-5,0
GOES 16,2016-071A,2026-07-07T11:32:18.306816,1.00271508,.0000492,0.3878,85.6375,70.1343,198.0679,0,U,41866,999,3530,0,-.76E-6,0
TIANLIAN 1-04,2016-072A,2026-07-07T12:13:58.927584,1.00269684,.0043743,0.9199,82.7936,90.0498,112.9472,0,U,41869,999,3550,0,.45E-6,0
WGS F8 (USA 272),2016-075A,2026-07-06T23:03:40.293792,1.00266912,.0000259,0.0491,64.0489,250.3243,106.3313,0,U,41879,999,3501,0,0,0
FENGYUN 4A,2016-077A,2026-07-07T12:37:28.834752,1.00272996,.0008162,2.3708,80.0644,157.9323,0.6473,0,U,41882,999,3513,0,-.343E-5,0
ECHOSTAR 19,2016-079A,2026-07-07T00:29:23.335008,1.00271485,.0001339,0.0191,35.4299,74.0084,85.8112,0,U,41893,999,3490,0,-.124E-5,0
JCSAT-110A (JCSAT-15),2016-082A,2026-07-06T19:57:29.776896,1.00270953,.0000592,0.0191,30.1152,95.6004,208.5334,0,U,41903,999,3495,0,-.336E-5,0
STAR ONE D1,2016-082B,2026-07-07T11:38:10.245120,1.00271754,.0002225,0.0142,310.5797,158.2236,267.1907,0,U,41904,999,3497,0,-.196E-5,0
TJS-2,2017-001A,2026-07-07T04:48:38.644128,1.00273258,.0000859,0.8817,85.0771,78.8736,259.9617,0,U,41911,999,3491,0,.8E-7,0
SBIRS GEO-4 (USA 273),2017-004A,2026-07-07T12:08:14.862048,1.00285097,.0002759,2.2795,43.7758,64.1098,20.9999,0,U,41937,999,3480,0,.14E-5,0
HISPASAT 36W-1,2017-006A,2026-07-07T04:30:38.614752,1.00271842,.000118,0.0438,220.6423,241.6750,214.5051,0,U,41942,999,3444,0,-.229E-5,0
TELKOM 3S,2017-007A,2026-07-07T12:35:51.491328,1.00267641,.0002125,0.0198,38.2364,73.5575,120.6619,0,U,41944,999,3434,0,0,0
INTELSAT 32E (IS-32E),2017-007B,2026-07-07T11:49:46.634304,1.00269617,.0000712,0.0168,339.8253,2.7489,77.1589,0,U,41945,999,3442,0,-.254E-5,0
ECHOSTAR 23,2017-014A,2026-07-06T23:32:15.052992,1.00272455,.0001991,0.0191,28.9773,77.8578,61.2878,0,U,42070,999,3412,0,-.42E-6,0
WGS F9 (USA 275),2017-016A,2026-07-07T06:50:48.402816,1.00274508,.0000591,0.0170,9.9080,150.1916,215.8636,0,U,42075,999,3409,0,0,0
SES-10,2017-017A,2026-07-07T11:43:02.278848,1.00268874,.0002707,0.0159,39.3363,72.9024,282.0812,0,U,42432,999,3395,0,-.257E-5,0
CHINASAT 16 (SJ-13),2017-018A,2026-07-06T19:27:06.887232,1.00273235,.0004893,0.0913,89.1052,131.8089,106.1895,0,U,42662,999,3394,0,-.337E-5,0
KOREASAT 7,2017-023A,2026-07-07T12:35:14.049888,1.00271437,.000065,0.0177,9.4647,119.4469,101.2580,0,U,42691,999,3357,0,-.347E-5,0
SGDC,2017-023B,2026-07-07T09:57:57.593088,1.00271265,.0002442,0.0041,21.5618,92.1746,246.2917,0,U,42692,999,3360,0,-.234E-5,0
GSAT-9,2017-024A,2026-07-07T12:29:43.302912,1.00270714,.0002219,0.0686,92.1593,24.4781,93.5984,0,U,42695,999,3350,0,-.271E-5,0
INMARSAT 5-F4,2017-025A,2026-07-07T02:02:21.452928,1.00273097,.0000435,0.0237,37.0830,157.5592,177.5202,0,U,42698,999,3347,0,0,0
SES-15,2017-026A,2026-07-07T09:34:54.704928,1.00271208,.0001027,0.0247,324.3391,186.0407,149.5634,0,U,42709,999,763,0,.75E-6,0
QZS-2 (MICHIBIKI-2),2017-028A,2026-07-07T11:47:25.543104,1.00278715,.0758233,39.3970,242.8544,269.5081,92.2444,0,U,42738,999,783,0,-.1E-5,0
VIASAT-2,2017-029A,2026-07-07T07:41:44.574720,1.00271793,.0000198,0.0236,289.0174,213.3383,188.4990,0,U,42740,999,3340,0,-.25E-5,0
EUTELSAT 172B,2017-029B,2026-07-07T12:10:57.898848,1.00271823,.000002,0.0310,127.0818,206.5955,306.5405,0,U,42741,999,3394,0,.1E-6,0
GSAT-19,2017-031A,2026-07-07T12:15:46.168992,1.00271833,.0006521,0.0182,84.2064,0.0943,73.0003,0,U,42747,999,3335,0,.14E-5,0
ECHOSTAR 21,2017-032A,2026-07-07T12:05:07.660896,1.00271446,.0002219,1.7698,356.9617,101.4788,18.5667,0,U,42749,999,3330,0,.8E-6,0
BULGARIASAT-1,2017-038A,2026-07-07T06:54:40.531968,1.00272343,.0003113,0.0225,289.3582,182.4061,279.0497,0,U,42801,999,3304,0,.26E-6,0
HELLAS-SAT 3,2017-040A,2026-07-06T20:45:53.221248,1.00273705,.000369,0.0589,55.1265,10.8786,209.3183,0,U,42814,999,3300,0,.167E-5,0
GSAT-17,2017-040B,2026-07-07T10:46:10.860384,1.00271012,.0001785,0.0519,89.1616,175.6152,275.6669,0,U,42815,999,3299,0,-.242E-5,0
INTELSAT 35E (IS-35E),2017-041A,2026-07-07T10:49:48.871776,1.00269726,.000164,0.0199,21.4408,86.1962,305.7495,0,U,42818,999,3301,0,0,0
COSMOS 2520,2017-046A,2026-07-07T10:32:19.688064,1.00273380,.0000514,0.0358,104.0602,42.7739,341.6432,0,U,42907,999,3260,0,.152E-5,0
TDRS 13,2017-047A,2026-07-07T10:16:13.730880,1.00271906,.0014947,3.4566,3.2028,110.4135,314.4314,0,U,42915,999,3255,0,-.86E-6,0
QZS-3 (MICHIBIKI-3),2017-048A,2026-07-07T00:39:42.892128,1.00263910,.0001888,0.0805,222.7686,245.8122,313.2924,0,U,42917,999,3245,0,-.334E-5,0
AMAZONAS 5,2017-053A,2026-07-07T04:54:06.742080,1.00270213,.0001292,0.0317,325.8954,108.3435,223.4694,0,U,42934,999,3224,0,-.267E-5,0
ASIASAT 9,2017-057A,2026-07-06T09:14:29.566752,1.00263349,.0002309,0.0472,65.7016,32.7689,86.6790,0,U,42942,999,3205,0,0,0
INTELSAT 37E (IS-37E),2017-059A,2026-07-07T10:14:21.410016,1.00269797,.000253,0.0221,36.2109,78.7211,306.0583,0,U,42950,999,3226,0,0,0
BSAT-4A,2017-059B,2026-07-06T19:57:29.805408,1.00272864,.0003654,0.0334,353.2761,83.7454,256.9939,0,U,42951,999,3199,0,-.335E-5,0
QZS-4 (MICHIBIKI-4),2017-062A,2026-07-07T07:30:59.551200,1.00292859,.0747233,40.0971,343.2309,268.3911,285.0425,0,U,42965,999,3200,0,-.308E-5,0
SES-11 (ECHOSTAR 105),2017-063A,2026-07-07T11:32:10.820256,1.00271018,.0002692,0.0138,1.7059,106.5788,245.2583,0,U,42967,999,3192,0,-.74E-6,0
KOREASAT 5A,2017-067A,2026-07-07T12:34:21.635328,1.00272073,.0000982,0.0098,340.9551,123.3966,122.8793,0,U,42984,999,3173,0,-.343E-5,0
ALCOMSAT 1,2017-078A,2026-07-07T08:29:43.911744,1.00272254,.0002318,0.0252,88.4996,20.4662,279.0013,0,U,43039,999,3149,0,-.171E-5,0
SBIRS GEO-3 (USA 282),2018-009A,2026-07-07T11:46:38.682336,1.00271960,.0001937,2.1978,13.0021,93.0036,196.7182,0,U,43162,999,3104,0,.142E-5,0
AL YAH 3,2018-012A,2026-07-07T10:13:43.971168,1.00271971,.0003697,1.6007,82.8727,22.9934,312.8549,0,U,43174,999,3104,0,-.141E-5,0
SES-14,2018-012B,2026-07-07T11:48:39.242304,1.00270244,.0001024,0.0145,30.8453,77.5369,306.7388,0,U,43175,999,722,0,-.263E-5,0
